{
  "type": "FeatureCollection",
  "features": [
    {
      "type": "Feature",
      "properties": {
        "norad_id": 22490,
        "name": "SCD 1",
        "group": "resource",
        "lat": 11.345038888239477,
        "lon": 5.481590915666969,
        "alt_km": 764.3789648661814,
        "timestamp": "2025-12-02T19:35:50.218109+00:00",
        "meta_object_name": "SCD 1",
        "meta_object_id": "1993-009B",
        "meta_epoch": "2025-12-02T10:13:06.223008",
        "meta_mean_motion": 14.45986792,
        "meta_eccentricity": 0.0041862,
        "meta_inclination": 24.971,
        "meta_ra_of_asc_node": 342.3541,
        "meta_arg_of_pericenter": 215.3163,
        "meta_mean_anomaly": 294.024,
        "meta_ephemeris_type": 0,
        "meta_classification_type": "U",
        "meta_norad_cat_id": 22490,
        "meta_element_set_no": 999,
        "meta_rev_at_epoch": 73260,
        "meta_bstar": 0.00012458,
        "meta_mean_motion_dot": 6.42e-06,
        "meta_mean_motion_ddot": 0,
        "tle_line1": "1 22490U 93009B   25336.42576647  .00000642  00000+0  12458-3 0  9992",
        "tle_line2": "2 22490  24.9710 342.3541 0041862 215.3163 294.0240 14.45986792732600"
      },
      "geometry": {
        "type": "Point",
        "coordinates": [
          5.481590915666969,
          11.345038888239477
        ]
      }
    },
    {
      "type": "Feature",
      "properties": {
        "norad_id": 25397,
        "name": "TECHSAT 1B (GO-32)",
        "group": "resource",
        "lat": 71.70077224903498,
        "lon": -68.8052000650589,
        "alt_km": 802.0305076265777,
        "timestamp": "2025-12-02T19:35:50.218136+00:00",
        "meta_object_name": "TECHSAT 1B (GO-32)",
        "meta_object_id": "1998-043D",
        "meta_epoch": "2025-12-02T09:08:09.182112",
        "meta_mean_motion": 14.24372307,
        "meta_eccentricity": 0.0002259,
        "meta_inclination": 98.9914,
        "meta_ra_of_asc_node": 319.3542,
        "meta_arg_of_pericenter": 74.523,
        "meta_mean_anomaly": 285.6197,
        "meta_ephemeris_type": 0,
        "meta_classification_type": "U",
        "meta_norad_cat_id": 25397,
        "meta_element_set_no": 999,
        "meta_rev_at_epoch": 42331,
        "meta_bstar": 8.3321e-05,
        "meta_mean_motion_dot": 1.46e-06,
        "meta_mean_motion_ddot": 0,
        "tle_line1": "1 25397U 98043D   25336.38066183  .00000146  00000+0  83321-4 0  9995",
        "tle_line2": "2 25397  98.9914 319.3542 0002259  74.5230 285.6197 14.24372307423318"
      },
      "geometry": {
        "type": "Point",
        "coordinates": [
          -68.8052000650589,
          71.70077224903498
        ]
      }
    },
    {
      "type": "Feature",
      "properties": {
        "norad_id": 25504,
        "name": "SCD 2",
        "group": "resource",
        "lat": 24.599060537397122,
        "lon": -77.58294472929485,
        "alt_km": 742.2173028457009,
        "timestamp": "2025-12-02T19:35:50.218151+00:00",
        "meta_object_name": "SCD 2",
        "meta_object_id": "1998-060A",
        "meta_epoch": "2025-12-02T08:22:08.651136",
        "meta_mean_motion": 14.45414,
        "meta_eccentricity": 0.0016726,
        "meta_inclination": 24.9937,
        "meta_ra_of_asc_node": 205.9699,
        "meta_arg_of_pericenter": 202.5525,
        "meta_mean_anomaly": 318.5622,
        "meta_ephemeris_type": 0,
        "meta_classification_type": "U",
        "meta_norad_cat_id": 25504,
        "meta_element_set_no": 999,
        "meta_rev_at_epoch": 43181,
        "meta_bstar": 9.8916e-05,
        "meta_mean_motion_dot": 5.36e-06,
        "meta_mean_motion_ddot": 0,
        "tle_line1": "1 25504U 98060A   25336.34871124  .00000536  00000+0  98916-4 0  9998",
        "tle_line2": "2 25504  24.9937 205.9699 0016726 202.5525 318.5622 14.45414000431812"
      },
      "geometry": {
        "type": "Point",
        "coordinates": [
          -77.58294472929485,
          24.599060537397122
        ]
      }
    },
    {
      "type": "Feature",
      "properties": {
        "norad_id": 25757,
        "name": "DLR-TUBSAT",
        "group": "resource",
        "lat": 14.224591076176138,
        "lon": -41.188491976516815,
        "alt_km": 727.1420671639935,
        "timestamp": "2025-12-02T19:35:50.218165+00:00",
        "meta_object_name": "DLR-TUBSAT",
        "meta_object_id": "1999-029B",
        "meta_epoch": "2025-12-02T11:15:49.641984",
        "meta_mean_motion": 14.52351212,
        "meta_eccentricity": 0.0013347,
        "meta_inclination": 98.6555,
        "meta_ra_of_asc_node": 320.6666,
        "meta_arg_of_pericenter": 225.229,
        "meta_mean_anomaly": 134.7819,
        "meta_ephemeris_type": 0,
        "meta_classification_type": "U",
        "meta_norad_cat_id": 25757,
        "meta_element_set_no": 999,
        "meta_rev_at_epoch": 40469,
        "meta_bstar": 6.1159e-05,
        "meta_mean_motion_dot": 2.01e-06,
        "meta_mean_motion_ddot": 0,
        "tle_line1": "1 25757U 99029B   25336.46932456  .00000201  00000+0  61159-4 0  9991",
        "tle_line2": "2 25757  98.6555 320.6666 0013347 225.2290 134.7819 14.52351212404697"
      },
      "geometry": {
        "type": "Point",
        "coordinates": [
          -41.188491976516815,
          14.224591076176138
        ]
      }
    },
    {
      "type": "Feature",
      "properties": {
        "norad_id": 25994,
        "name": "TERRA",
        "group": "resource",
        "lat": 46.80473319227787,
        "lon": -142.547061704384,
        "alt_km": 683.7419176495341,
        "timestamp": "2025-12-02T19:35:50.218177+00:00",
        "meta_object_name": "TERRA",
        "meta_object_id": "1999-068A",
        "meta_epoch": "2025-12-02T11:02:06.308736",
        "meta_mean_motion": 14.60933302,
        "meta_eccentricity": 0.0003376,
        "meta_inclination": 97.9764,
        "meta_ra_of_asc_node": 28.5207,
        "meta_arg_of_pericenter": 118.5544,
        "meta_mean_anomaly": 298.756,
        "meta_ephemeris_type": 0,
        "meta_classification_type": "U",
        "meta_norad_cat_id": 25994,
        "meta_element_set_no": 999,
        "meta_rev_at_epoch": 38088,
        "meta_bstar": 0.00015897,
        "meta_mean_motion_dot": 7.34e-06,
        "meta_mean_motion_ddot": 0,
        "tle_line1": "1 25994U 99068A   25336.45979524  .00000734  00000+0  15897-3 0  9991",
        "tle_line2": "2 25994  97.9764  28.5207 0003376 118.5544 298.7560 14.60933302380889"
      },
      "geometry": {
        "type": "Point",
        "coordinates": [
          -142.547061704384,
          46.80473319227787
        ]
      }
    },
    {
      "type": "Feature",
      "properties": {
        "norad_id": 27004,
        "name": "MAROC-TUBSAT",
        "group": "resource",
        "lat": 63.61455334411356,
        "lon": -14.542866705513495,
        "alt_km": 1006.3470517506084,
        "timestamp": "2025-12-02T19:35:50.218189+00:00",
        "meta_object_name": "MAROC-TUBSAT",
        "meta_object_id": "2001-056D",
        "meta_epoch": "2025-12-02T10:24:58.972032",
        "meta_mean_motion": 13.70252105,
        "meta_eccentricity": 0.0019112,
        "meta_inclination": 99.7911,
        "meta_ra_of_asc_node": 144.6986,
        "meta_arg_of_pericenter": 287.5856,
        "meta_mean_anomaly": 100.9799,
        "meta_ephemeris_type": 0,
        "meta_classification_type": "U",
        "meta_norad_cat_id": 27004,
        "meta_element_set_no": 999,
        "meta_rev_at_epoch": 19924,
        "meta_bstar": 3.5947e-05,
        "meta_mean_motion_dot": -1.5e-07,
        "meta_mean_motion_ddot": 0,
        "tle_line1": "1 27004U 01056D   25336.43401588 -.00000015  00000+0  35947-4 0  9995",
        "tle_line2": "2 27004  99.7911 144.6986 0019112 287.5856 100.9799 13.70252105199240"
      },
      "geometry": {
        "type": "Point",
        "coordinates": [
          -14.542866705513495,
          63.61455334411356
        ]
      }
    },
    {
      "type": "Feature",
      "properties": {
        "norad_id": 27424,
        "name": "AQUA",
        "group": "resource",
        "lat": -23.550866171448764,
        "lon": -58.770942672651344,
        "alt_km": 693.2699131728432,
        "timestamp": "2025-12-02T19:35:50.218200+00:00",
        "meta_object_name": "AQUA",
        "meta_object_id": "2002-022A",
        "meta_epoch": "2025-12-02T11:59:32.149824",
        "meta_mean_motion": 14.61768633,
        "meta_eccentricity": 7.3e-05,
        "meta_inclination": 98.4022,
        "meta_ra_of_asc_node": 297.2134,
        "meta_arg_of_pericenter": 106.9827,
        "meta_mean_anomaly": 2.7837,
        "meta_ephemeris_type": 0,
        "meta_classification_type": "U",
        "meta_norad_cat_id": 27424,
        "meta_element_set_no": 999,
        "meta_rev_at_epoch": 25453,
        "meta_bstar": 0.00031046,
        "meta_mean_motion_dot": 1.5e-05,
        "meta_mean_motion_ddot": 0,
        "tle_line1": "1 27424U 02022A   25336.49967766  .00001500  00000+0  31046-3 0  9990",
        "tle_line2": "2 27424  98.4022 297.2134 0000730 106.9827   2.7837 14.61768633254538"
      },
      "geometry": {
        "type": "Point",
        "coordinates": [
          -58.770942672651344,
          -23.550866171448764
        ]
      }
    }
  ]
}